$$SOE
2459580.500000000, A.D. 2022-Jan-01 00:00:00.0000, -1.041232047589996E+08, 3.022757958312374E+08, -5.232429675270081E+06,
2459587.500000000, A.D. 2022-Jan-08 00:00:00.0000, -1.156981790652057E+08, 2.977658973398456E+08, -5.107960339528650E+06,
2459594.500000000, A.D. 2022-Jan-15 00:00:00.0000, -1.271009884083430E+08, 2.928128166788256E+08, -4.975887639613405E+06,
2459601.500000000, A.D. 2022-Jan-22 00:00:00.0000, -1.383142187765711E+08, 2.874229120063446E+08, -4.836391297031641E+06,
2459608.500000000, A.D. 2022-Jan-29 00:00:00.0000, -1.493206745368451E+08, 2.816032612569827E+08, -4.689663453163490E+06,
2459615.500000000, A.D. 2022-Feb-05 00:00:00.0000, -1.601034126853512E+08, 2.753616553710896E+08, -4.535908294830084E+06,
2459622.500000000, A.D. 2022-Feb-12 00:00:00.0000, -1.706457749028960E+08, 2.687065887938039E+08, -4.375341931347415E+06,
2459629.500000000, A.D. 2022-Feb-19 00:00:00.0000, -1.809314186638775E+08, 2.616472496180870E+08, -4.208192210455194E+06,
2459636.500000000, A.D. 2022-Feb-26 00:00:00.0000, -1.909443486096277E+08, 2.541935086605537E+08, -4.034698414724380E+06,
2459643.500000000, A.D. 2022-Mar-05 00:00:00.0000, -2.006689479165423E+08, 2.463559068538960E+08, -3.855110904302374E+06,
2459650.500000000, A.D. 2022-Mar-12 00:00:00.0000, -2.100900093282243E+08, 2.381456408903633E+08, -3.669690731996879E+06,
2459657.500000000, A.D. 2022-Mar-19 00:00:00.0000, -2.191927656734270E+08, 2.295745471500861E+08, -3.478709235313118E+06,
2459664.500000000, A.D. 2022-Mar-26 00:00:00.0000, -2.279629197416609E+08, 2.206550839215277E+08, -3.282447608578458E+06,
2459671.500000000, A.D. 2022-Apr-02 00:00:00.0000, -2.363866733441283E+08, 2.114003118797233E+08, -3.081196466741681E+06,
2459678.500000000, A.D. 2022-Apr-09 00:00:00.0000, -2.444507551844800E+08, 2.018238728569300E+08, -2.875255426358253E+06,
2459685.500000000, A.D. 2022-Apr-16 00:00:00.0000, -2.521424470804316E+08, 1.919399675972011E+08, -2.664932684127405E+06,
2459692.500000000, A.D. 2022-Apr-23 00:00:00.0000, -2.594496097081048E+08, 1.817633336247585E+08, -2.450544389412671E+06,
2459699.500000000, A.D. 2022-Apr-30 00:00:00.0000, -2.663607096488362E+08, 1.713092210395399E+08, -2.232413824954934E+06,
2459706.500000000, A.D. 2022-May-07 00:00:00.0000, -2.728648445790132E+08, 1.605933643344494E+08, -2.010870839550838E+06,
2459713.500000000, A.D. 2022-May-14 00:00:00.0000, -2.789517651138567E+08, 1.496319533344926E+08, -1.786251411900908E+06,
2459720.500000000, A.D. 2022-May-21 00:00:00.0000, -2.846118952571622E+08, 1.384416040863945E+08, -1.558897099202566E+06,
2459727.500000000, A.D. 2022-May-28 00:00:00.0000, -2.898363518638279E+08, 1.270393288277945E+08, -1.329154407802835E+06,
2459734.500000000, A.D. 2022-Jun-04 00:00:00.0000, -2.946169627637392E+08, 1.154425048152843E+08, -1.097374138799876E+06,
2459741.500000000, A.D. 2022-Jun-11 00:00:00.0000, -2.989462833334473E+08, 1.036688421073031E+08, -8.639107233435214E+05,
2459748.500000000, A.D. 2022-Jun-18 00:00:00.0000, -3.028176114163367E+08, 9.173635041368343E+07, -6.291215519684404E+05,
2459755.500000000, A.D. 2022-Jun-25 00:00:00.0000, -3.062250005090805E+08, 7.966330508211000E+07, -3.933663053711876E+05,
2459762.500000000, A.D. 2022-Jul-02 00:00:00.0000, -3.091632710351613E+08, 6.746821226329930E+07, -1.570063063242733E+05,
2459769.500000000, A.D. 2022-Jul-09 00:00:00.0000, -3.116280192773309E+08, 5.516977354256967E+07, 7.959608395294100E+04,
2459776.500000000, A.D. 2022-Jul-16 00:00:00.0000, -3.136156239935741E+08, 4.278685123301845E+07, 3.160781165715661E+05,
2459783.500000000, A.D. 2022-Jul-23 00:00:00.0000, -3.151232528943836E+08, 3.033843452050725E+07, 5.520775587168802E+05,
2459790.500000000, A.D. 2022-Jul-30 00:00:00.0000, -3.161488688912704E+08, 1.784360322132363E+07, 7.872335659568757E+05,
2459797.500000000, A.D. 2022-Aug-06 00:00:00.0000, -3.166912325174387E+08, 5.321489921475621E+06, 1.021187244095703E+06,
2459804.500000000, A.D. 2022-Aug-13 00:00:00.0000, -3.167499013394281E+08, -7.208756629790286E+06, 1.253582200387891E+06,
2459811.500000000, A.D. 2022-Aug-20 00:00:00.0000, -3.163252279362803E+08, -1.972800726715058E+07, 1.484065185207854E+06,
2459818.500000000, A.D. 2022-Aug-27 00:00:00.0000, -3.154183564045523E+08, -3.221718791515862E+07, 1.712286755915280E+06,
2459825.500000000, A.D. 2022-Sep-03 00:00:00.0000, -3.140312171748967E+08, -4.465731485237560E+07, 1.937901929099889E+06,
2459832.500000000, A.D. 2022-Sep-10 00:00:00.0000, -3.121665200870178E+08, -5.702952960214675E+07, 2.160570813338172E+06,
2459839.500000000, A.D. 2022-Sep-17 00:00:00.0000, -3.098277457372840E+08, -6.931513334992123E+07, 2.379959217988729E+06,
2459846.500000000, A.D. 2022-Sep-24 00:00:00.0000, -3.070191350907118E+08, -8.149562084128678E+07, 2.595739226564676E+06,
2459853.500000000, A.D. 2022-Oct-01 00:00:00.0000, -3.037456771776598E+08, -9.355271369054469E+07, 2.807589709097955E+06,
2459860.500000000, A.D. 2022-Oct-08 00:00:00.0000, -3.000130945346323E+08, -1.054683924880722E+08, 3.015196777283698E+06,
2459867.500000000, A.D. 2022-Oct-15 00:00:00.0000, -2.958278273900235E+08, -1.172249264192393E+08, 3.218254364748605E+06,
2459874.500000000, A.D. 2022-Oct-22 00:00:00.0000, -2.911970188444747E+08, -1.288049019949722E+08, 3.416464994046107E+06,
2459881.500000000, A.D. 2022-Oct-29 00:00:00.0000, -2.861284986172199E+08, -1.401912534133067E+08, 3.609540288427211E+06,
2459888.500000000, A.D. 2022-Nov-05 00:00:00.0000, -2.806307633309780E+08, -1.513672917483282E+08, 3.797201258965924E+06,
2459895.500000000, A.D. 2022-Nov-12 00:00:00.0000, -2.747129553775479E+08, -1.623167316486617E+08, 3.979178649590723E+06,
2459902.500000000, A.D. 2022-Nov-19 00:00:00.0000, -2.683848411718547E+08, -1.730237164588742E+08, 4.155213326153852E+06,
2459909.500000000, A.D. 2022-Nov-26 00:00:00.0000, -2.616567886313497E+08, -1.834728421252252E+08, 4.325056651198901E+06,
2459916.500000000, A.D. 2022-Dec-03 00:00:00.0000, -2.545397438166620E+08, -1.936491798615617E+08, 4.488470827559456E+06,
2459923.500000000, A.D. 2022-Dec-10 00:00:00.0000, -2.470452067841083E+08, -2.035382975224121E+08, 4.645229208489671E+06,
2459930.500000000, A.D. 2022-Dec-17 00:00:00.0000, -2.391852067148474E+08, -2.131262796806873E+08, 4.795116570572466E+06,
2459937.500000000, A.D. 2022-Dec-24 00:00:00.0000, -2.309722762980673E+08, -2.223997464572794E+08, 4.937929334375337E+06,
2459944.500000000, A.D. 2022-Dec-31 00:00:00.0000, -2.224194250970500E+08, -2.313458709846418E+08, 5.073475709143952E+06,
2459951.500000000, A.D. 2023-Jan-07 00:00:00.0000, -2.135401118613614E+08, -2.399523945377793E+08, 5.201575829280898E+06,
2459958.500000000, A.D. 2023-Jan-14 00:00:00.0000, -2.043482178356768E+08, -2.482076388366757E+08, 5.322062103949770E+06,
2459965.500000000, A.D. 2023-Jan-21 00:00:00.0000, -1.948580217910324E+08, -2.561005187010143E+08, 5.434779579789743E+06,
2459972.500000000, A.D. 2023-Jan-28 00:00:00.0000, -1.850841731924485E+08, -2.636205552697562E+08, 5.539585964687079E+06,
2459979.500000000, A.D. 2023-Feb-04 00:00:00.0000, -1.750416637927047E+08, -2.707578867784148E+08, 5.636351580133811E+06,
2459986.500000000, A.D. 2023-Feb-11 00:00:00.0000, -1.647457995240383E+08, -2.775032771089773E+08, 5.724959392231703E+06,
2459993.500000000, A.D. 2023-Feb-18 00:00:00.0000, -1.542121728220446E+08, -2.838481229590234E+08, 5.805305060909152E+06,
2460000.500000000, A.D. 2023-Feb-25 00:00:00.0000, -1.434566351841699E+08, -2.897844598194270E+08, 5.877296970636204E+06,
2460007.500000000, A.D. 2023-Mar-04 00:00:00.0000, -1.324952699218002E+08, -2.953049667762543E+08, 5.940856235270813E+06,
2460014.500000000, A.D. 2023-Mar-11 00:00:00.0000, -1.213443651371952E+08, -3.004029701761699E+08, 5.995916675417185E+06,
2460021.500000000, A.D. 2023-Mar-18 00:00:00.0000, -1.100203869357401E+08, -3.050724462461218E+08, 6.042424761365071E+06,
2460028.500000000, A.D. 2023-Mar-25 00:00:00.0000, -9.853995272301920E+07, -3.093080227562660E+08, 6.080339500556901E+06,
2460035.500000000, A.D. 2023-Apr-01 00:00:00.0000, -8.691980420999002E+07, -3.131049793758627E+08, 6.109632264121532E+06,
2460042.500000000, A.D. 2023-Apr-08 00:00:00.0000, -7.517678078503600E+07, -3.164592455411572E+08, 6.130286710260510E+06,
2460049.500000000, A.D. 2023-Apr-15 00:00:00.0000, -6.332779562812359E+07, -3.193673969848894E+08, 6.142298929407716E+06,
2460056.500000000, A.D. 2023-Apr-22 00:00:00.0000, -5.138981279057414E+07, -3.218266540252657E+08, 6.145677396499783E+06,
2460063.500000000, A.D. 2023-Apr-29 00:00:00.0000, -3.937982253543834E+07, -3.238348794122378E+08, 6.140442664583638E+06,
2460070.500000000, A.D. 2023-May-06 00:00:00.0000, -2.731481672651836E+07, -3.253905740006384E+08, 6.126627108033106E+06,
2460077.500000000, A.D. 2023-May-13 00:00:00.0000, -1.521176526665584E+07, -3.264928711923318E+08, 6.104274733085349E+06,
2460084.500000000, A.D. 2023-May-20 00:00:00.0000, -3.087593371224630E+06, -3.271415306860897E+08, 6.073440995060280E+06,
2460091.500000000, A.D. 2023-May-27 00:00:00.0000, 9.040840500003178E+06, -3.273369316107526E+08, 6.034192602800041E+06,
2460098.500000000, A.D. 2023-Jun-03 00:00:00.0000, 2.115676609805720E+07, -3.270800650603870E+08, 5.986607307438329E+06,
2460105.500000000, A.D. 2023-Jun-10 00:00:00.0000, 3.324352224328499E+07, -3.263725260909838E+08, 5.930773672398835E+06,
2460112.500000000, A.D. 2023-Jun-17 00:00:00.0000, 4.528457717062114E+07, -3.252165052867715E+08, 5.866790812247828E+06,
2460119.500000000, A.D. 2023-Jun-24 00:00:00.0000, 5.726354867594725E+07, -3.236147798875454E+08, 5.794768076640189E+06,
2460126.500000000, A.D. 2023-Jul-01 00:00:00.0000, 6.916422431192037E+07, -3.215707036919641E+08, 5.714824724742398E+06,
2460133.500000000, A.D. 2023-Jul-08 00:00:00.0000, 8.097057995641384E+07, -3.190881949525188E+08, 5.627089811519444E+06,
2460140.500000000, A.D. 2023-Jul-15 00:00:00.0000, 9.266679547685106E+07, -3.161717251236184E+08, 5.531702172087356E+06,
$$EOE